[{"OBJECT_NAME":"DUPLEX","OBJECT_ID":"1998-067XS","EPOCH":"2026-03-23T03:09:54.959040","MEAN_MOTION":15.57057045,"ECCENTRICITY":0.00031297,"INCLINATION":51.6301,"RA_OF_ASC_NODE":2.1718,"ARG_OF_PERICENTER":170.5661,"MEAN_ANOMALY":189.539,"EPHEMERIS_TYPE":0,"CLASSIFICATION_TYPE":"U","NORAD_CAT_ID":66906,"ELEMENT_SET_NO":999,"REV_AT_EPOCH":1722,"BSTAR":0.00049885683,"MEAN_MOTION_DOT":0.00036468,"MEAN_MOTION_DDOT":0},{"OBJECT_NAME":"ISS OBJECT XT","OBJECT_ID":"1998-067XT","EPOCH":"2026-03-23T03:03:30.951648","MEAN_MOTION":15.73983745,"ECCENTRICITY":0.0005369,"INCLINATION":51.6254,"RA_OF_ASC_NODE":356.864,"ARG_OF_PERICENTER":166.1185,"MEAN_ANOMALY":193.9962,"EPHEMERIS_TYPE":0,"CLASSIFICATION_TYPE":"U","NORAD_CAT_ID":66907,"ELEMENT_SET_NO":999,"REV_AT_EPOCH":1729,"BSTAR":0.001687406,"MEAN_MOTION_DOT":0.00252347,"MEAN_MOTION_DDOT":0},{"OBJECT_NAME":"ISS OBJECT XU","OBJECT_ID":"1998-067XU","EPOCH":"2026-03-23T02:59:11.220288","MEAN_MOTION":15.74162534,"ECCENTRICITY":0.00056023,"INCLINATION":51.6246,"RA_OF_ASC_NODE":356.8387,"ARG_OF_PERICENTER":166.2607,"MEAN_ANOMALY":193.8545,"EPHEMERIS_TYPE":0,"CLASSIFICATION_TYPE":"U","NORAD_CAT_ID":66908,"ELEMENT_SET_NO":999,"REV_AT_EPOCH":1729,"BSTAR":0.0017375684,"MEAN_MOTION_DOT":0.00262204,"MEAN_MOTION_DDOT":0},{"OBJECT_NAME":"SILVERSAT","OBJECT_ID":"1998-067XV","EPOCH":"2026-03-23T11:24:25.495776","MEAN_MOTION":15.78703515,"ECCENTRICITY":0.000621,"INCLINATION":51.6224,"RA_OF_ASC_NODE":353.9233,"ARG_OF_PERICENTER":174.2086,"MEAN_ANOMALY":185.8987,"EPHEMERIS_TYPE":0,"CLASSIFICATION_TYPE":"U","NORAD_CAT_ID":66909,"ELEMENT_SET_NO":999,"REV_AT_EPOCH":1736,"BSTAR":0.0014886,"MEAN_MOTION_DOT":0.00274859,"MEAN_MOTION_DDOT":0},{"OBJECT_NAME":"ISS OBJECT XW","OBJECT_ID":"1998-067XW","EPOCH":"2026-03-23T03:07:01.684704","MEAN_MOTION":15.72839352,"ECCENTRICITY":0.00057814,"INCLINATION":51.6244,"RA_OF_ASC_NODE":356.8723,"ARG_OF_PERICENTER":166.1394,"MEAN_ANOMALY":193.9764,"EPHEMERIS_TYPE":0,"CLASSIFICATION_TYPE":"U","NORAD_CAT_ID":66910,"ELEMENT_SET_NO":999,"REV_AT_EPOCH":1729,"BSTAR":0.0015745779,"MEAN_MOTION_DOT":0.00223399,"MEAN_MOTION_DDOT":0},{"OBJECT_NAME":"ISS OBJECT XX","OBJECT_ID":"1998-067XX","EPOCH":"2026-03-23T02:54:37.918944","MEAN_MOTION":15.83698112,"ECCENTRICITY":0.00077498,"INCLINATION":51.62,"RA_OF_ASC_NODE":354.5306,"ARG_OF_PERICENTER":174.8625,"MEAN_ANOMALY":185.2459,"EPHEMERIS_TYPE":0,"CLASSIFICATION_TYPE":"U","NORAD_CAT_ID":66911,"ELEMENT_SET_NO":999,"REV_AT_EPOCH":1731,"BSTAR":0.0021091614,"MEAN_MOTION_DOT":0.00504349,"MEAN_MOTION_DDOT":0},{"OBJECT_NAME":"ISS OBJECT XY","OBJECT_ID":"1998-067XY","EPOCH":"2026-03-23T04:23:00.606624","MEAN_MOTION":15.66386367,"ECCENTRICITY":0.00040315,"INCLINATION":51.6273,"RA_OF_ASC_NODE":358.7506,"ARG_OF_PERICENTER":168.1265,"MEAN_ANOMALY":191.9827,"EPHEMERIS_TYPE":0,"CLASSIFICATION_TYPE":"U","NORAD_CAT_ID":66912,"ELEMENT_SET_NO":999,"REV_AT_EPOCH":1726,"BSTAR":0.0011004278,"MEAN_MOTION_DOT":0.00117705,"MEAN_MOTION_DDOT":0},{"OBJECT_NAME":"KNACKSAT-2","OBJECT_ID":"1998-067XZ","EPOCH":"2026-03-23T12:05:09.820896","MEAN_MOTION":15.5296767,"ECCENTRICITY":0.0009815,"INCLINATION":51.6321,"RA_OF_ASC_NODE":3.1544,"ARG_OF_PERICENTER":235.6966,"MEAN_ANOMALY":124.3095,"EPHEMERIS_TYPE":0,"CLASSIFICATION_TYPE":"U","NORAD_CAT_ID":67683,"ELEMENT_SET_NO":999,"REV_AT_EPOCH":693,"BSTAR":0.00052676,"MEAN_MOTION_DOT":0.00033155,"MEAN_MOTION_DDOT":0},{"OBJECT_NAME":"CORAL","OBJECT_ID":"1998-067YA","EPOCH":"2026-03-23T04:36:54.989568","MEAN_MOTION":15.5657931,"ECCENTRICITY":0.00123273,"INCLINATION":51.631,"RA_OF_ASC_NODE":4.0749,"ARG_OF_PERICENTER":223.6063,"MEAN_ANOMALY":136.3956,"EPHEMERIS_TYPE":0,"CLASSIFICATION_TYPE":"U","NORAD_CAT_ID":67684,"ELEMENT_SET_NO":999,"REV_AT_EPOCH":689,"BSTAR":0.0013187356,"MEAN_MOTION_DOT":0.0009651,"MEAN_MOTION_DDOT":0},{"OBJECT_NAME":"GXIBA-1","OBJECT_ID":"1998-067YB","EPOCH":"2026-03-22T06:33:11.551104","MEAN_MOTION":15.53290377,"ECCENTRICITY":0.00116284,"INCLINATION":51.6327,"RA_OF_ASC_NODE":9.1857,"ARG_OF_PERICENTER":227.888,"MEAN_ANOMALY":132.1122,"EPHEMERIS_TYPE":0,"CLASSIFICATION_TYPE":"U","NORAD_CAT_ID":67685,"ELEMENT_SET_NO":999,"REV_AT_EPOCH":674,"BSTAR":0.00060489181,"MEAN_MOTION_DOT":0.00038654,"MEAN_MOTION_DDOT":0},{"OBJECT_NAME":"UITMSAT-2","OBJECT_ID":"1998-067YC","EPOCH":"2026-03-23T00:48:33.609312","MEAN_MOTION":15.54231876,"ECCENTRICITY":0.00087347,"INCLINATION":51.6323,"RA_OF_ASC_NODE":5.268,"ARG_OF_PERICENTER":200.8114,"MEAN_ANOMALY":159.2523,"EPHEMERIS_TYPE":0,"CLASSIFICATION_TYPE":"U","NORAD_CAT_ID":67686,"ELEMENT_SET_NO":999,"REV_AT_EPOCH":686,"BSTAR":0.001072261,"MEAN_MOTION_DOT":0.00071513,"MEAN_MOTION_DDOT":0},{"OBJECT_NAME":"HMU-SAT2","OBJECT_ID":"1998-067YD","EPOCH":"2026-03-23T11:59:10.645728","MEAN_MOTION":15.53210479,"ECCENTRICITY":0.0008334,"INCLINATION":51.633,"RA_OF_ASC_NODE":3.1286,"ARG_OF_PERICENTER":205.8311,"MEAN_ANOMALY":154.2264,"EPHEMERIS_TYPE":0,"CLASSIFICATION_TYPE":"U","NORAD_CAT_ID":67687,"ELEMENT_SET_NO":999,"REV_AT_EPOCH":685,"BSTAR":0.00057019,"MEAN_MOTION_DOT":0.00036242,"MEAN_MOTION_DDOT":0},{"OBJECT_NAME":"LEOPARD","OBJECT_ID":"1998-067YE","EPOCH":"2026-03-23T11:44:16.001376","MEAN_MOTION":15.53908478,"ECCENTRICITY":0.000853,"INCLINATION":51.6326,"RA_OF_ASC_NODE":3.0592,"ARG_OF_PERICENTER":203.299,"MEAN_ANOMALY":156.7615,"EPHEMERIS_TYPE":0,"CLASSIFICATION_TYPE":"U","NORAD_CAT_ID":67688,"ELEMENT_SET_NO":999,"REV_AT_EPOCH":685,"BSTAR":0.00064306,"MEAN_MOTION_DOT":0.00042029,"MEAN_MOTION_DDOT":0},{"OBJECT_NAME":"CREW DRAGON 12","OBJECT_ID":"2026-031A","EPOCH":"2026-03-23T10:53:20.760000","MEAN_MOTION":15.48489537,"ECCENTRICITY":0.0006177,"INCLINATION":51.6345,"RA_OF_ASC_NODE":4.3184,"ARG_OF_PERICENTER":224.029,"MEAN_ANOMALY":136.0206,"EPHEMERIS_TYPE":0,"CLASSIFICATION_TYPE":"U","NORAD_CAT_ID":67796,"ELEMENT_SET_NO":999,"REV_AT_EPOCH":55839,"BSTAR":0.00028089,"MEAN_MOTION_DOT":0.00014788,"MEAN_MOTION_DDOT":0},{"OBJECT_NAME":"PROGRESS-MS 33","OBJECT_ID":"2026-058A","EPOCH":"2026-03-23T01:13:34.369536","MEAN_MOTION":16.01170532,"ECCENTRICITY":0.00116217,"INCLINATION":51.6358,"RA_OF_ASC_NODE":6.8873,"ARG_OF_PERICENTER":152.2903,"MEAN_ANOMALY":207.8729,"EPHEMERIS_TYPE":0,"CLASSIFICATION_TYPE":"U","NORAD_CAT_ID":68319,"ELEMENT_SET_NO":999,"REV_AT_EPOCH":6,"BSTAR":0.00035870065,"MEAN_MOTION_DOT":0.00200487,"MEAN_MOTION_DDOT":2.8255529e-5},{"OBJECT_NAME":"SL-4 R/B","OBJECT_ID":"2026-058B","EPOCH":"2026-03-23T20:09:33.992064","MEAN_MOTION":16.38279989,"ECCENTRICITY":0.0012028,"INCLINATION":51.6493,"RA_OF_ASC_NODE":2.4646,"ARG_OF_PERICENTER":80.2957,"MEAN_ANOMALY":279.9427,"EPHEMERIS_TYPE":0,"CLASSIFICATION_TYPE":"U","NORAD_CAT_ID":68320,"ELEMENT_SET_NO":999,"REV_AT_EPOCH":22,"BSTAR":0.00058261,"MEAN_MOTION_DOT":0.06757869,"MEAN_MOTION_DDOT":1.2382e-5}]
